{
  "type": "FeatureCollection",
  "features": [
    {
      "type": "Feature",
      "properties": {
        "norad_id": 34765,
        "name": "IRIDIUM 33 DEB",
        "group": "iridium-33-debris",
        "lat": -24.565610090819902,
        "lon": 26.93327367279837,
        "alt_km": 773.3445308049322,
        "timestamp": "2025-12-22T09:53:37.785715+00:00",
        "meta_object_name": "IRIDIUM 33 DEB",
        "meta_object_id": "1997-051LJ",
        "meta_epoch": "2025-12-21T13:03:17.424288",
        "meta_mean_motion": 14.40485449,
        "meta_eccentricity": 0.0016466,
        "meta_inclination": 86.3382,
        "meta_ra_of_asc_node": 28.9833,
        "meta_arg_of_pericenter": 181.3076,
        "meta_mean_anomaly": 334.2319,
        "meta_ephemeris_type": 0,
        "meta_classification_type": "U",
        "meta_norad_cat_id": 34765,
        "meta_element_set_no": 999,
        "meta_rev_at_epoch": 87740,
        "meta_bstar": 0.00029938,
        "meta_mean_motion_dot": 9.73e-06,
        "meta_mean_motion_ddot": 0,
        "tle_line1": "1 34765U 97051LJ  25355.54395167  .00000973  00000+0  29938-3 0  9999",
        "tle_line2": "2 34765  86.3382  28.9833 0016466 181.3076 334.2319 14.40485449877403"
      },
      "geometry": {
        "type": "Point",
        "coordinates": [
          26.93327367279837,
          -24.565610090819902
        ]
      }
    },
    {
      "type": "Feature",
      "properties": {
        "norad_id": 34833,
        "name": "IRIDIUM 33 DEB",
        "group": "iridium-33-debris",
        "lat": 43.9236265424763,
        "lon": -136.65765344492766,
        "alt_km": 708.2260886096383,
        "timestamp": "2025-12-22T09:53:37.785725+00:00",
        "meta_object_name": "IRIDIUM 33 DEB",
        "meta_object_id": "1997-051MH",
        "meta_epoch": "2025-12-21T03:45:30.832704",
        "meta_mean_motion": 14.52421073,
        "meta_eccentricity": 0.00214678,
        "meta_inclination": 86.3927,
        "meta_ra_of_asc_node": 47.3667,
        "meta_arg_of_pericenter": 72.8031,
        "meta_mean_anomaly": 341.7014,
        "meta_ephemeris_type": 0,
        "meta_classification_type": "U",
        "meta_norad_cat_id": 34833,
        "meta_element_set_no": 999,
        "meta_rev_at_epoch": 87837,
        "meta_bstar": 0.00044712979,
        "meta_mean_motion_dot": 1.848e-05,
        "meta_mean_motion_ddot": 0,
        "tle_line1": "1 34833U 97051MH  25355.15660686  .00001848  00000+0  44713-3 0  9993",
        "tle_line2": "2 34833  86.3927  47.3667 0021467  72.8031 341.7014 14.52421073878374"
      },
      "geometry": {
        "type": "Point",
        "coordinates": [
          -136.65765344492766,
          43.9236265424763
        ]
      }
    },
    {
      "type": "Feature",
      "properties": {
        "norad_id": 34870,
        "name": "IRIDIUM 33 DEB",
        "group": "iridium-33-debris",
        "lat": -46.410009936032715,
        "lon": 133.53902007012337,
        "alt_km": 644.4065654428878,
        "timestamp": "2025-12-22T09:53:37.785735+00:00",
        "meta_object_name": "IRIDIUM 33 DEB",
        "meta_object_id": "1997-051MQ",
        "meta_epoch": "2025-12-21T21:48:47.340000",
        "meta_mean_motion": 14.76591295,
        "meta_eccentricity": 0.0017606,
        "meta_inclination": 86.3113,
        "meta_ra_of_asc_node": 309.8837,
        "meta_arg_of_pericenter": 150.0243,
        "meta_mean_anomaly": 282.2367,
        "meta_ephemeris_type": 0,
        "meta_classification_type": "U",
        "meta_norad_cat_id": 34870,
        "meta_element_set_no": 999,
        "meta_rev_at_epoch": 89046,
        "meta_bstar": 0.0014111,
        "meta_mean_motion_dot": 9.902e-05,
        "meta_mean_motion_ddot": 0,
        "tle_line1": "1 34870U 97051MQ  25355.90888125  .00009902  00000+0  14111-2 0  9994",
        "tle_line2": "2 34870  86.3113 309.8837 0017606 150.0243 282.2367 14.76591295890465"
      },
      "geometry": {
        "type": "Point",
        "coordinates": [
          133.53902007012337,
          -46.410009936032715
        ]
      }
    },
    {
      "type": "Feature",
      "properties": {
        "norad_id": 34896,
        "name": "IRIDIUM 33 DEB",
        "group": "iridium-33-debris",
        "lat": 72.09335679683558,
        "lon": -26.19557918241685,
        "alt_km": 671.1372433735669,
        "timestamp": "2025-12-22T09:53:37.785744+00:00",
        "meta_object_name": "IRIDIUM 33 DEB",
        "meta_object_id": "1997-051MY",
        "meta_epoch": "2025-12-22T04:42:04.437216",
        "meta_mean_motion": 14.66361603,
        "meta_eccentricity": 0.0025464,
        "meta_inclination": 86.3297,
        "meta_ra_of_asc_node": 322.4431,
        "meta_arg_of_pericenter": 180.4876,
        "meta_mean_anomaly": 190.8945,
        "meta_ephemeris_type": 0,
        "meta_classification_type": "U",
        "meta_norad_cat_id": 34896,
        "meta_element_set_no": 999,
        "meta_rev_at_epoch": 87758,
        "meta_bstar": 0.00089125,
        "meta_mean_motion_dot": 4.968e-05,
        "meta_mean_motion_ddot": 0,
        "tle_line1": "1 34896U 97051MY  25356.19588469  .00004968  00000+0  89125-3 0  9997",
        "tle_line2": "2 34896  86.3297 322.4431 0025464 180.4876 190.8945 14.66361603877588"
      },
      "geometry": {
        "type": "Point",
        "coordinates": [
          -26.19557918241685,
          72.09335679683558
        ]
      }
    },
    {
      "type": "Feature",
      "properties": {
        "norad_id": 34926,
        "name": "IRIDIUM 33 DEB",
        "group": "iridium-33-debris",
        "lat": 67.24882876742413,
        "lon": 174.50246105203732,
        "alt_km": 747.6188629488124,
        "timestamp": "2025-12-22T09:53:37.785754+00:00",
        "meta_object_name": "IRIDIUM 33 DEB",
        "meta_object_id": "1997-051NF",
        "meta_epoch": "2025-12-21T19:20:10.732128",
        "meta_mean_motion": 14.5478701,
        "meta_eccentricity": 0.0074441,
        "meta_inclination": 86.132,
        "meta_ra_of_asc_node": 4.0681,
        "meta_arg_of_pericenter": 261.3659,
        "meta_mean_anomaly": 276.799,
        "meta_ephemeris_type": 0,
        "meta_classification_type": "U",
        "meta_norad_cat_id": 34926,
        "meta_element_set_no": 999,
        "meta_rev_at_epoch": 86588,
        "meta_bstar": 0.0043404,
        "meta_mean_motion_dot": 0.0001936,
        "meta_mean_motion_ddot": 0,
        "tle_line1": "1 34926U 97051NF  25355.80567977  .00019360  00000+0  43404-2 0  9990",
        "tle_line2": "2 34926  86.1320   4.0681 0074441 261.3659 276.7990 14.54787010865889"
      },
      "geometry": {
        "type": "Point",
        "coordinates": [
          174.50246105203732,
          67.24882876742413
        ]
      }
    },
    {
      "type": "Feature",
      "properties": {
        "norad_id": 34985,
        "name": "IRIDIUM 33 DEB",
        "group": "iridium-33-debris",
        "lat": 20.31862147097821,
        "lon": -128.59356505596134,
        "alt_km": 738.1804192481331,
        "timestamp": "2025-12-22T09:53:37.785766+00:00",
        "meta_object_name": "IRIDIUM 33 DEB",
        "meta_object_id": "1997-051NR",
        "meta_epoch": "2025-12-21T03:18:55.645056",
        "meta_mean_motion": 14.42041434,
        "meta_eccentricity": 0.00216435,
        "meta_inclination": 86.369,
        "meta_ra_of_asc_node": 53.2972,
        "meta_arg_of_pericenter": 191.5239,
        "meta_mean_anomaly": 198.031,
        "meta_ephemeris_type": 0,
        "meta_classification_type": "U",
        "meta_norad_cat_id": 34985,
        "meta_element_set_no": 999,
        "meta_rev_at_epoch": 87296,
        "meta_bstar": 0.00042163262,
        "meta_mean_motion_dot": 1.407e-05,
        "meta_mean_motion_ddot": 0,
        "tle_line1": "1 34985U 97051NR  25355.13814404  .00001407  00000+0  42163-3 0  9996",
        "tle_line2": "2 34985  86.3690  53.2972 0021643 191.5239 198.0310 14.42041434872968"
      },
      "geometry": {
        "type": "Point",
        "coordinates": [
          -128.59356505596134,
          20.31862147097821
        ]
      }
    },
    {
      "type": "Feature",
      "properties": {
        "norad_id": 35051,
        "name": "IRIDIUM 33 DEB",
        "group": "iridium-33-debris",
        "lat": -73.00596929900692,
        "lon": -7.497524024885882,
        "alt_km": 746.1357578293528,
        "timestamp": "2025-12-22T09:53:37.785786+00:00",
        "meta_object_name": "IRIDIUM 33 DEB",
        "meta_object_id": "1997-051NX",
        "meta_epoch": "2025-12-19T07:34:48.667584",
        "meta_mean_motion": 14.47625509,
        "meta_eccentricity": 0.0010483,
        "meta_inclination": 86.3238,
        "meta_ra_of_asc_node": 5.9957,
        "meta_arg_of_pericenter": 72.9006,
        "meta_mean_anomaly": 287.3345,
        "meta_ephemeris_type": 0,
        "meta_classification_type": "U",
        "meta_norad_cat_id": 35051,
        "meta_element_set_no": 999,
        "meta_rev_at_epoch": 87091,
        "meta_bstar": 0.00045048,
        "meta_mean_motion_dot": 1.68e-05,
        "meta_mean_motion_ddot": 0,
        "tle_line1": "1 35051U 97051NX  25353.31584106  .00001680  00000+0  45048-3 0  9990",
        "tle_line2": "2 35051  86.3238   5.9957 0010483  72.9006 287.3345 14.47625509870911"
      },
      "geometry": {
        "type": "Point",
        "coordinates": [
          -7.497524024885882,
          -73.00596929900692
        ]
      }
    }
  ]
}